{"fetched_at":"2026-07-14T06:34:21.837Z","source":"https://celestrak.org/NORAD/elements/gp.php?GROUP=oneweb&FORMAT=JSON","constellation":"oneweb","records":[{"OBJECT_NAME":"ONEWEB-0564","OBJECT_ID":"2023-029F","EPOCH":"2026-07-13T19:14:33.442080","CLASSIFICATION_TYPE":"U","MEAN_MOTION":13.20772104,"ECCENTRICITY":0.0001783,"INCLINATION":87.9178,"RA_OF_ASC_NODE":269.1483,"ARG_OF_PERICENTER":90.4946,"MEAN_ANOMALY":269.6392,"EPHEMERIS_TYPE":0,"NORAD_CAT_ID":55801,"ELEMENT_SET_NO":999,"REV_AT_EPOCH":16466,"BSTAR":-0.000096341,"MEAN_MOTION_DOT":-2.6e-7,"MEAN_MOTION_DDOT":0},{"OBJECT_NAME":"ONEWEB-0638","OBJECT_ID":"2023-029G","EPOCH":"2026-07-13T19:20:33.374112","CLASSIFICATION_TYPE":"U","MEAN_MOTION":13.1450433,"ECCENTRICITY":0.0001379,"INCLINATION":87.8952,"RA_OF_ASC_NODE":284.4472,"ARG_OF_PERICENTER":101.4118,"MEAN_ANOMALY":258.7167,"EPHEMERIS_TYPE":0,"NORAD_CAT_ID":55802,"ELEMENT_SET_NO":999,"REV_AT_EPOCH":16289,"BSTAR":-0.00036528,"MEAN_MOTION_DOT":-0.00000123,"MEAN_MOTION_DDOT":0},{"OBJECT_NAME":"ONEWEB-0639","OBJECT_ID":"2023-029H","EPOCH":"2026-07-13T19:05:07.864224","CLASSIFICATION_TYPE":"U","MEAN_MOTION":13.19726078,"ECCENTRICITY":0.0002581,"INCLINATION":87.9184,"RA_OF_ASC_NODE":299.6775,"ARG_OF_PERICENTER":121.3508,"MEAN_ANOMALY":238.7877,"EPHEMERIS_TYPE":0,"NORAD_CAT_ID":55803,"ELEMENT_SET_NO":999,"REV_AT_EPOCH":16241,"BSTAR":0.00007342,"MEAN_MOTION_DOT":4.2e-7,"MEAN_MOTION_DDOT":0},{"OBJECT_NAME":"ONEWEB-0640","OBJECT_ID":"2023-029J","EPOCH":"2026-07-13T17:44:38.767776","CLASSIFICATION_TYPE":"U","MEAN_MOTION":13.145025,"ECCENTRICITY":0.0001479,"INCLINATION":87.8959,"RA_OF_ASC_NODE":284.4501,"ARG_OF_PERICENTER":119.6981,"MEAN_ANOMALY":240.4296,"EPHEMERIS_TYPE":0,"NORAD_CAT_ID":55804,"ELEMENT_SET_NO":999,"REV_AT_EPOCH":16290,"BSTAR":-0.00053617,"MEAN_MOTION_DOT":-0.00000186,"MEAN_MOTION_DDOT":0},{"OBJECT_NAME":"ONEWEB-0641","OBJECT_ID":"2023-029K","EPOCH":"2026-07-13T18:58:18.756768","CLASSIFICATION_TYPE":"U","MEAN_MOTION":13.19726485,"ECCENTRICITY":0.000212,"INCLINATION":87.9192,"RA_OF_ASC_NODE":299.6695,"ARG_OF_PERICENTER":104.8151,"MEAN_ANOMALY":255.3217,"EPHEMERIS_TYPE":0,"NORAD_CAT_ID":55805,"ELEMENT_SET_NO":999,"REV_AT_EPOCH":16242,"BSTAR":-0.000046488,"MEAN_MOTION_DOT":-6e-8,"MEAN_MOTION_DDOT":0},{"OBJECT_NAME":"ONEWEB-0642","OBJECT_ID":"2023-029L","EPOCH":"2026-07-13T18:51:30.153024","CLASSIFICATION_TYPE":"U","MEAN_MOTION":13.19767052,"ECCENTRICITY":0.0002452,"INCLINATION":87.9184,"RA_OF_ASC_NODE":299.6807,"ARG_OF_PERICENTER":110.0851,"MEAN_ANOMALY":250.0546,"EPHEMERIS_TYPE":0,"NORAD_CAT_ID":55806,"ELEMENT_SET_NO":999,"REV_AT_EPOCH":16241,"BSTAR":-0.019987,"MEAN_MOTION_DOT":-0.00007987,"MEAN_MOTION_DDOT":0},{"OBJECT_NAME":"ONEWEB-0643","OBJECT_ID":"2023-029M","EPOCH":"2026-07-13T17:01:16.170816","CLASSIFICATION_TYPE":"U","MEAN_MOTION":13.1450234,"ECCENTRICITY":0.0002633,"INCLINATION":87.8961,"RA_OF_ASC_NODE":284.443,"ARG_OF_PERICENTER":115.7664,"MEAN_ANOMALY":244.3738,"EPHEMERIS_TYPE":0,"NORAD_CAT_ID":55807,"ELEMENT_SET_NO":999,"REV_AT_EPOCH":16287,"BSTAR":0.00055446,"MEAN_MOTION_DOT":0.00000218,"MEAN_MOTION_DDOT":0},{"OBJECT_NAME":"ONEWEB-0644","OBJECT_ID":"2023-029N","EPOCH":"2026-07-13T20:33:51.859008","CLASSIFICATION_TYPE":"U","MEAN_MOTION":13.19725695,"ECCENTRICITY":0.0002278,"INCLINATION":87.9181,"RA_OF_ASC_NODE":299.6673,"ARG_OF_PERICENTER":107.2915,"MEAN_ANOMALY":252.8467,"EPHEMERIS_TYPE":0,"NORAD_CAT_ID":55808,"ELEMENT_SET_NO":999,"REV_AT_EPOCH":16242,"BSTAR":0.00010377,"MEAN_MOTION_DOT":5.4e-7,"MEAN_MOTION_DDOT":0},{"OBJECT_NAME":"ONEWEB-0645","OBJECT_ID":"2023-029P","EPOCH":"2026-07-13T19:16:31.601856","CLASSIFICATION_TYPE":"U","MEAN_MOTION":13.19725517,"ECCENTRICITY":0.0002023,"INCLINATION":87.9184,"RA_OF_ASC_NODE":299.6749,"ARG_OF_PERICENTER":121.3788,"MEAN_ANOMALY":238.7543,"EPHEMERIS_TYPE":0,"NORAD_CAT_ID":55809,"ELEMENT_SET_NO":999,"REV_AT_EPOCH":16241,"BSTAR":0.00018165,"MEAN_MOTION_DOT":8.6e-7,"MEAN_MOTION_DDOT":0},{"OBJECT_NAME":"ONEWEB-0646","OBJECT_ID":"2023-029Q","EPOCH":"2026-07-13T19:41:32.059680","CLASSIFICATION_TYPE":"U","MEAN_MOTION":13.19726991,"ECCENTRICITY":0.0002236,"INCLINATION":87.9187,"RA_OF_ASC_NODE":299.6711,"ARG_OF_PERICENTER":105.9276,"MEAN_ANOMALY":254.2103,"EPHEMERIS_TYPE":0,"NORAD_CAT_ID":55810,"ELEMENT_SET_NO":999,"REV_AT_EPOCH":16240,"BSTAR":-0.000049311,"MEAN_MOTION_DOT":-7e-8,"MEAN_MOTION_DDOT":0},{"OBJECT_NAME":"ONEWEB-0648","OBJECT_ID":"2023-029R","EPOCH":"2026-07-13T18:05:12.000768","CLASSIFICATION_TYPE":"U","MEAN_MOTION":13.14503602,"ECCENTRICITY":0.0002319,"INCLINATION":87.8971,"RA_OF_ASC_NODE":284.4101,"ARG_OF_PERICENTER":123.7851,"MEAN_ANOMALY":236.35,"EPHEMERIS_TYPE":0,"NORAD_CAT_ID":55811,"ELEMENT_SET_NO":999,"REV_AT_EPOCH":16288,"BSTAR":-0.00021557,"MEAN_MOTION_DOT":-6.7e-7,"MEAN_MOTION_DDOT":0},{"OBJECT_NAME":"ONEWEB-0649","OBJECT_ID":"2023-029S","EPOCH":"2026-07-13T20:17:55.150080","CLASSIFICATION_TYPE":"U","MEAN_MOTION":13.19726654,"ECCENTRICITY":0.0002031,"INCLINATION":87.9184,"RA_OF_ASC_NODE":299.6647,"ARG_OF_PERICENTER":108.749,"MEAN_ANOMALY":251.3863,"EPHEMERIS_TYPE":0,"NORAD_CAT_ID":55812,"ELEMENT_SET_NO":999,"REV_AT_EPOCH":16244,"BSTAR":-0.000041964,"MEAN_MOTION_DOT":-4e-8,"MEAN_MOTION_DDOT":0},{"OBJECT_NAME":"ONEWEB-0650","OBJECT_ID":"2023-029T","EPOCH":"2026-07-13T20:11:06.078912","CLASSIFICATION_TYPE":"U","MEAN_MOTION":13.1972617,"ECCENTRICITY":0.0002459,"INCLINATION":87.9186,"RA_OF_ASC_NODE":299.6675,"ARG_OF_PERICENTER":112.2061,"MEAN_ANOMALY":247.9333,"EPHEMERIS_TYPE":0,"NORAD_CAT_ID":55813,"ELEMENT_SET_NO":999,"REV_AT_EPOCH":16241,"BSTAR":-0.000001522,"MEAN_MOTION_DOT":1.2e-7,"MEAN_MOTION_DDOT":0},{"OBJECT_NAME":"ONEWEB-0652","OBJECT_ID":"2023-029U","EPOCH":"2026-07-13T17:37:47.828640","CLASSIFICATION_TYPE":"U","MEAN_MOTION":13.14502392,"ECCENTRICITY":0.0002005,"INCLINATION":87.897,"RA_OF_ASC_NODE":284.421,"ARG_OF_PERICENTER":95.3378,"MEAN_ANOMALY":264.7981,"EPHEMERIS_TYPE":0,"NORAD_CAT_ID":55814,"ELEMENT_SET_NO":999,"REV_AT_EPOCH":16285,"BSTAR":-0.00055651,"MEAN_MOTION_DOT":-0.00000194,"MEAN_MOTION_DDOT":0},{"OBJECT_NAME":"ONEWEB-0653","OBJECT_ID":"2023-029V","EPOCH":"2026-07-13T19:04:34.093056","CLASSIFICATION_TYPE":"U","MEAN_MOTION":13.14501871,"ECCENTRICITY":0.0001948,"INCLINATION":87.8976,"RA_OF_ASC_NODE":284.4064,"ARG_OF_PERICENTER":99.6842,"MEAN_ANOMALY":260.4508,"EPHEMERIS_TYPE":0,"NORAD_CAT_ID":55815,"ELEMENT_SET_NO":999,"REV_AT_EPOCH":16289,"BSTAR":0.000072229,"MEAN_MOTION_DOT":4e-7,"MEAN_MOTION_DDOT":0},{"OBJECT_NAME":"ONEWEB-0654","OBJECT_ID":"2023-029W","EPOCH":"2026-07-13T18:57:43.059744","CLASSIFICATION_TYPE":"U","MEAN_MOTION":13.14501548,"ECCENTRICITY":0.0001852,"INCLINATION":87.8978,"RA_OF_ASC_NODE":284.4033,"ARG_OF_PERICENTER":88.6547,"MEAN_ANOMALY":271.4794,"EPHEMERIS_TYPE":0,"NORAD_CAT_ID":55816,"ELEMENT_SET_NO":999,"REV_AT_EPOCH":16291,"BSTAR":0.00028356,"MEAN_MOTION_DOT":0.00000118,"MEAN_MOTION_DDOT":0}]}
